STARLINK-5493           
1 55333U 23013C   26158.67687994  .00000503  00000+0  27802-4 0  9996
2 55333  43.0032 155.3962 0001193 264.7326  95.3390 15.27571701185434
STARLINK-5652           
1 55334U 23013D   26159.39225797 -.00000827  00000+0 -20533-4 0  9991
2 55334  43.0000 151.2028 0001003 254.3172 105.7569 15.27573398185542
STARLINK-5660           
1 55335U 23013E   26158.68072761 -.00000888  00000+0 -22751-4 0  9995
2 55335  43.0020 155.4208 0001493 276.5879  83.4803 15.27586885185430
STARLINK-5655           
1 55336U 23013F   26158.66965701 -.00000561  00000+0 -10853-4 0  9997
2 55336  43.0046 140.5302 0001554 275.9699  84.0976 15.27570798185603
STARLINK-5667           
1 55337U 23013G   26158.24151036  .00000055  00000+0  11523-4 0  9991
2 55337  43.0066 143.3833 0001166 264.4966  95.5753 15.27574339185532
STARLINK-5658           
1 55338U 23013H   26158.68459508 -.00001713  00000+0 -52752-4 0  9998
2 55338  43.0044 155.4469 0000964 277.6675  82.4068 15.27576974185436
STARLINK-5671           
1 55339U 23013J   26158.28663514  .00000120  00000+0  13897-4 0  9995
2 55339  43.0037 161.0329 0001307 269.5436  90.5265 15.27576206185330
STARLINK-5675           
1 55340U 23013K   26159.42938871  .00000836  00000+0  39932-4 0  9997
2 55340  43.0032 150.7265 0001607 276.2617  83.8051 15.27572668185550
STARLINK-5670           
1 55341U 23013L   26158.68716229  .00001208  00000+0  53422-4 0  9990
2 55341  43.0003 155.4710 0000934 260.2194  99.8552 15.27560818185435
STARLINK-5657           
1 55342U 23013M   26158.69098482  .00004121  00000+0  15907-3 0  9998
2 55342  43.0023 155.4971 0001263 293.8027  66.2692 15.27605936185434
STARLINK-5661           
1 55343U 23013N   26158.69985878 -.00000640  00000+0 -13744-4 0  9995
2 55343  43.0014 154.7096 0001333 278.1648  81.9052 15.27571587185447
STARLINK-5653           
1 55345U 23013Q   26159.21460279 -.00000867  00000+0 -21983-4 0  9994
2 55345  43.0022 137.8105 0001300 260.4558  99.6147 15.27570171185684
STARLINK-5631           
1 55346U 23013R   26159.42296183 -.00000272  00000+0 -35926-6 0  9993
2 55346  43.0031 150.6696 0001609 281.0970  78.9701 15.27587482185557
STARLINK-5663           
1 55347U 23013S   26158.70242675 -.00000796  00000+0 -19398-4 0  9995
2 55347  43.0019 154.7240 0001167 265.0096  95.0623 15.27568880185446
STARLINK-5609           
1 55348U 23013T   26158.71398590 -.00000478  00000+0 -78423-5 0  9997
2 55348  43.0047 154.8092 0002260 276.3847  83.6747 15.27582794185448
STARLINK-5666           
1 55349U 23013U   26158.71785227 -.00000675  00000+0 -15012-4 0  9998
2 55349  43.0033 154.8388 0001598 272.9169  87.1500 15.27571471185440
STARLINK-5668           
1 55350U 23013V   26158.69858172 -.00008013  00000+0 -28166-3 0  9994
2 55350  42.9999 154.6924 0001435 267.4162  92.6526 15.27615412185440
STARLINK-5659           
1 55351U 23013W   26159.43195449  .00000068  00000+0  11989-4 0  9995
2 55351  43.0045 150.7329 0001709 275.4914  84.5742 15.27577990185559
STARLINK-5547           
1 55352U 23013X   26158.27091529 -.00000552  00000+0 -10523-4 0  9994
2 55352  43.0068 154.0971 0001164 271.7295  88.3423 15.27575778185416
STARLINK-5608           
1 55353U 23013Y   26159.23372426 -.00000382  00000+0 -43641-5 0  9999
2 55353  43.0035 148.4209 0001799 269.2823  90.7823 15.27572743185561
STARLINK-5649           
1 55354U 23013Z   26158.70878250 -.00005911  00000+0 -20544-3 0  9995
2 55354  43.0057 154.7760 0002450 271.8651  88.1920 15.27575606185448
STARLINK-5647           
1 55355U 23013AA  26159.24735619  .00000429  00000+0  25132-4 0  9993
2 55355  43.0038 151.9122 0001762 274.9027  85.1624 15.27577989185517
STARLINK-5651           
1 55357U 23013AC  26159.24350978 -.00000160  00000+0  37063-5 0  9996
2 55357  43.0034 151.8960 0001749 275.7425  84.3227 15.27578044185524
STARLINK-5622           
1 55358U 23013AD  26159.43581208  .00000963  00000+0  44532-4 0  9998
2 55358  43.0037 150.7653 0001695 264.8956  95.1702 15.27573103185555
STARLINK-5641           
1 55359U 23013AE  26158.27249418  .00000798  00000+0  38533-4 0  9994
2 55359  43.0046 160.9265 0001818 271.9831  88.0813 15.27581935185338
STARLINK-5664           
1 55360U 23013AF  26158.98224585  .00000631  00000+0  32472-4 0  9994
2 55360  43.0031 171.4826 0001308 284.7354  75.3352 15.27579575185277
STARLINK-5665           
1 55361U 23013AG  26159.24401267  .00000093  00000+0  12897-4 0  9990
2 55361  43.0023 137.1920 0000867 273.4776  86.5977 15.27576528185693
STARLINK-5574           
1 55362U 23013AH  26159.62990729 -.00004254  00000+0 -14507-3 0  9993
2 55362  42.9995 134.9304 0001239 277.2047  82.8664 15.27594804185754
STARLINK-5627           
1 55364U 23013AK  26158.72634867 -.00000038  00000+0  81549-5 0  9990
2 55364  43.0021 158.3136 0002003 281.4720  78.5906 15.27575187185402
STARLINK-5639           
1 55365U 23013AL  26158.90914867 -.00000004  00000+0  93815-5 0  9994
2 55365  43.0007 171.8022 0000882 270.1968  89.8783 15.27575529185265
