OBJECT_NAME,OBJECT_ID,EPOCH,MEAN_MOTION,ECCENTRICITY,INCLINATION,RA_OF_ASC_NODE,ARG_OF_PERICENTER,MEAN_ANOMALY,EPHEMERIS_TYPE,CLASSIFICATION_TYPE,NORAD_CAT_ID,ELEMENT_SET_NO,REV_AT_EPOCH,BSTAR,MEAN_MOTION_DOT,MEAN_MOTION_DDOT
STARLINK-5493,2023-013C,2026-06-07T16:14:42.426816,15.27571701,.00011931,43.0032,155.3962,264.7326,95.3390,0,U,55333,999,18543,.27801806E-4,.503E-5,0
STARLINK-5652,2023-013D,2026-06-08T09:24:51.088608,15.27573398,.00010033,43.0000,151.2028,254.3172,105.7569,0,U,55334,999,18554,-.20532552E-4,-.827E-5,0
STARLINK-5660,2023-013E,2026-06-07T16:20:14.865504,15.27586885,.00014934,43.0020,155.4208,276.5879,83.4803,0,U,55335,999,18543,-.22751076E-4,-.888E-5,0
STARLINK-5655,2023-013F,2026-06-07T16:04:18.365664,15.27570798,.00015543,43.0046,140.5302,275.9699,84.0976,0,U,55336,999,18560,-.10852544E-4,-.561E-5,0
STARLINK-5667,2023-013G,2026-06-07T05:47:46.495104,15.27574339,.0001166,43.0066,143.3833,264.4966,95.5753,0,U,55337,999,18553,.11523E-4,.55E-6,0
STARLINK-5658,2023-013H,2026-06-07T16:25:49.014912,15.27576974,.0000964,43.0044,155.4469,277.6675,82.4068,0,U,55338,999,18543,-.52752141E-4,-.1713E-4,0
STARLINK-5671,2023-013J,2026-06-07T06:52:45.276096,15.27576206,.0001307,43.0037,161.0329,269.5436,90.5265,0,U,55339,999,18533,.13897E-4,.12E-5,0
STARLINK-5675,2023-013K,2026-06-08T10:18:19.184544,15.27572668,.00016074,43.0032,150.7265,276.2617,83.8051,0,U,55340,999,18555,.39931906E-4,.836E-5,0
STARLINK-5670,2023-013L,2026-06-07T16:29:30.821856,15.27560818,.00009344,43.0003,155.4710,260.2194,99.8552,0,U,55341,999,18543,.5342226E-4,.1208E-4,0
STARLINK-5657,2023-013M,2026-06-07T16:35:01.088448,15.27605936,.00012635,43.0023,155.4971,293.8027,66.2692,0,U,55342,999,18543,.15907149E-3,.4121E-4,0
STARLINK-5661,2023-013N,2026-06-07T16:47:47.798592,15.27571587,.00013336,43.0014,154.7096,278.1648,81.9052,0,U,55343,999,18544,-.13743535E-4,-.64E-5,0
STARLINK-5653,2023-013Q,2026-06-08T05:09:01.681056,15.27570171,.00013,43.0022,137.8105,260.4558,99.6147,0,U,55345,999,18568,-.21983E-4,-.867E-5,0
STARLINK-5631,2023-013R,2026-06-08T10:09:03.902112,15.27587482,.00016092,43.0031,150.6696,281.0970,78.9701,0,U,55346,999,18555,-.35926E-6,-.272E-5,0
STARLINK-5663,2023-013S,2026-06-07T16:51:29.671200,15.27568880,.0001167,43.0019,154.7240,265.0096,95.0623,0,U,55347,999,18544,-.19398E-4,-.796E-5,0
STARLINK-5609,2023-013T,2026-06-07T17:08:08.381760,15.27582794,.00022604,43.0047,154.8092,276.3847,83.6747,0,U,55348,999,18544,-.7842258E-5,-.478E-5,0
STARLINK-5666,2023-013U,2026-06-07T17:13:42.436128,15.27571471,.00015983,43.0033,154.8388,272.9169,87.1500,0,U,55349,999,18544,-.15012375E-4,-.675E-5,0
STARLINK-5668,2023-013V,2026-06-07T16:45:57.460608,15.27615412,.0001435,42.9999,154.6924,267.4162,92.6526,0,U,55350,999,18544,-.28166E-3,-.8013E-4,0
STARLINK-5659,2023-013W,2026-06-08T10:22:00.867936,15.27577990,.00017097,43.0045,150.7329,275.4914,84.5742,0,U,55351,999,18555,.11989161E-4,.68E-6,0
STARLINK-5547,2023-013X,2026-06-07T06:30:07.081056,15.27575778,.0001164,43.0068,154.0971,271.7295,88.3423,0,U,55352,999,18541,-.10523E-4,-.552E-5,0
STARLINK-5608,2023-013Y,2026-06-08T05:36:33.776064,15.27572743,.0001799,43.0035,148.4209,269.2823,90.7823,0,U,55353,999,18556,-.43641E-5,-.382E-5,0
STARLINK-5649,2023-013Z,2026-06-07T17:00:38.808000,15.27575606,.00024503,43.0057,154.7760,271.8651,88.1920,0,U,55354,999,18544,-.20544474E-3,-.5911E-4,0
STARLINK-5647,2023-013AA,2026-06-08T05:56:11.574816,15.27577989,.0001762,43.0038,151.9122,274.9027,85.1624,0,U,55355,999,18551,.25132E-4,.429E-5,0
STARLINK-5651,2023-013AC,2026-06-08T05:50:39.244992,15.27578044,.0001749,43.0034,151.8960,275.7425,84.3227,0,U,55357,999,18552,.37063E-5,-.16E-5,0
STARLINK-5622,2023-013AD,2026-06-08T10:27:34.163712,15.27573103,.00016957,43.0037,150.7653,264.8956,95.1702,0,U,55358,999,18555,.4453193E-4,.963E-5,0
STARLINK-5641,2023-013AE,2026-06-07T06:32:23.497152,15.27581935,.0001818,43.0046,160.9265,271.9831,88.0813,0,U,55359,999,18533,.38533E-4,.798E-5,0
STARLINK-5664,2023-013AF,2026-06-07T23:34:26.041440,15.27579575,.00013086,43.0031,171.4826,284.7354,75.3352,0,U,55360,999,18527,.32471939E-4,.631E-5,0
STARLINK-5665,2023-013AG,2026-06-08T05:51:22.694688,15.27576528,.0000867,43.0023,137.1920,273.4776,86.5977,0,U,55361,999,18569,.12897E-4,.93E-6,0
STARLINK-5574,2023-013AH,2026-06-08T15:07:03.989856,15.27594804,.0001239,42.9995,134.9304,277.2047,82.8664,0,U,55362,999,18575,-.14507E-3,-.4254E-4,0
STARLINK-5627,2023-013AK,2026-06-07T17:25:56.525088,15.27575187,.00020032,43.0021,158.3136,281.4720,78.5906,0,U,55364,999,18540,.8154931E-5,-.38E-6,0
STARLINK-5639,2023-013AL,2026-06-07T21:49:10.445088,15.27575529,.00008828,43.0007,171.8022,270.1968,89.8783,0,U,55365,999,18526,.9381506E-5,-.4E-7,0
